P/2020 M1 (PANSTARRS),e,8.6636,142.8532,70.7155,5.253487,0.0818526,0.48274034,56.2059,11/16.0/2021,2000,g 14.5,4.0
# From MPEC 2021-N06
C/2020 M3 (ATLAS),e,23.4716,71.2327,328.4634,26.91339,0.0070591,0.95288324,2.7272,11/16.0/2021,2000,g 14.5,4.0
# From MPEC 2021-R75
A/2020 M4,e,160.1272,348.6222,104.6522,39354,0.0000001,0.99984874,0.0000,11/24.0605/2020,2000,g 14.5,2.0
# From MPEC 2021-U31
C/2020 M5 (ATLAS),h,08/19.8768/2021,93.2238,352.0939,126.3375,1.000153,3.004337,2000,9.0,4.0
# From MPEC 2021-N06
C/2020 N1 (PANSTARRS),h,03/12.2172/2021,29.7037,279.9759,186.7630,1.000504,1.320486,2000,12.5,4.0
# From MPEC 2021-P47
C/2020 N2 (ATLAS),e,161.0348,257.0921,331.2603,102.4368,0.0009506,0.98248345,0.0000,08/23.7510/2020,2000,g 16.0,3.2
# From MPEC 2020-SI8
P/2020 O1 (Lemmon-PANSTARRS),e,5.2259,175.9764,104.5333,2.644595,0.2291740,0.11940299,128.8815,11/16.0/2021,2000,g 15.5,4.0
# From MPEC 2021-UA9
C/2020 O2 (Amaral),h,08/28.5732/2021,71.7493,256.7564,10.3037,1.002430,4.862193,2000,8.0,3.2
# From MPEC 2020-SI8
P/2020 O3 (PANSTARRS),e,8.4416,266.8338,81.5925,4.651643,0.0982414,0.10418634,28.4508,11/16.0/2021,2000,g 12.0,4.0
# From MPEC 2021-BE3
C/2020 P1 (NEOWISE),h,10/20.1929/2020,45.0788,53.5224,8.8892,1.000267,0.341874,2000,14.0,3.2
# From MPEC 2021-U31
C/2020 P3 (ATLAS),e,61.8855,19.4777,82.2517,14041,0.0000006,0.99951484,0.0000,04/20.8837/2021,2000,g  6.0,4.0
# From MPEC 2021-UA9
C/2020 PV6 (PANSTARRS),e,128.2393,329.1441,71.3824,41.72679,0.0036566,0.94498395,0.1865,11/16.0/2021,2000,g 10.0,4.0
# From MPEC 2021-N06
C/2020 Q1 (Borisov),e,142.9154,52.4168,9.9012,58.75769,0.0021883,0.97762245,0.0000,08/14.5958/2020,2000,g 14.0,4.0
# From MPEC 2021-UA9
C/2020 R2 (PANSTARRS),e,53.2265,195.0924,211.7252,412.8215,0.0001175,0.98863440,0.0000,02/24.4200/2022,2000,g  9.0,4.0
# From MPEC 2021-S45
C/2020 R4 (ATLAS),e,164.4631,323.2737,46.7205,98.30666,0.0010112,0.98953577,0.0000,03/01.9513/2021,2000,g 13.5,4.0
# From MPEC 2020-W26
P/2020 R5 (PANSTARRS),e,11.4525,272.9762,82.4243,4.982293,0.0886258,0.31471288,47.5212,11/16.0/2021,2000,g  9.5,6.0
# From MPEC 2020-W26
C/2020 R6 (Rankin),e,82.8205,12.1743,271.9538,521.3908,0.0000828,0.99400260,0.0000,09/10.0113/2019,2000,g 11.0,4.0
# From MPEC 2021-UA9
C/2020 R7 (ATLAS),e,114.8924,268.2787,347.8267,19832,0.0000004,0.99985094,0.0000,09/16.2146/2022,2000,g  7.0,3.2
# From MPEC 2021-BE3
P/2020 S1 (PANSTARRS),e,13.7338,129.4600,254.9138,5.984072,0.0673300,0.50742733,20.3941,11/16.0/2021,2000,g 14.0,4.0
# From MPEC 2021-BE3
C/2020 S2 (PANSTARRS),e,22.3986,197.6752,202.2867,10.19494,0.0302780,0.82774919,9.9620,11/16.0/2021,2000,g 17.0,4.0
# From MPEC 2021-UA9
C/2020 S3 (Erasmus),e,19.8971,222.8774,349.9401,183.7646,0.0003957,0.99783646,0.0000,12/12.6893/2020,2000,g 13.5,3.2
# From MPEC 2021-UA9
C/2020 S4 (PANSTARRS),h,02/09.4042/2023,20.5738,117.7186,21.0202,1.000223,3.369310,2000,8.5,3.2
# From MPEC 2021-BE3
P/2020 S5 (PANSTARRS),e,12.3537,316.0002,53.0822,4.050828,0.1208894,0.33857420,56.1344,11/16.0/2021,2000,g 14.5,4.0
# From MPEC 2021-P47
P/2020 S6 (Leonard),e,15.4590,242.5582,176.6640,3.599942,0.1442982,0.47927106,51.5661,11/16.0/2021,2000,g 16.0,4.0
# From MPEC 2021-BE3
P/2020 S7 (PANSTARRS),e,16.0920,328.0184,40.4559,5.025012,0.0874981,0.41064285,31.7361,11/16.0/2021,2000,g 14.5,4.0
# From MPEC 2021-P47
C/2020 S8 (Lemmon),e,108.5232,24.0540,160.3337,276.7122,0.0002141,0.99145761,0.0000,04/10.9297/2021,2000,g 12.5,4.0
# From MPEC 2021-UA9
C/2020 T2 (Palomar),e,27.8724,83.0478,150.3905,312.0671,0.0001788,0.99341570,0.0000,07/11.1623/2021,2000,g 11.0,3.2
# From MPEC 2021-N06
P/2020 T3 (PANSTARRS),e,7.2954,74.0112,357.0377,3.517449,0.1494040,0.59165401,44.7503,11/16.0/2021,2000,g 18.0,3.2
# From MPEC 2021-N06
C/2020 T4 (PANSTARRS),h,07/05.2578/2021,83.8149,50.6177,79.6086,1.000063,2.191862,2000,13.0,3.2
# From MPEC 2021-BE3
C/2020 T5 (Lemmon),e,66.5934,237.8607,90.3046,840.9051,0.0000404,0.99775322,0.0000,10/09.6201/2020,2000,g 16.0,4.0
# From MPEC 2021-N06
P/2020 U2 (PANSTARRS),e,6.4212,342.8994,84.6414,3.777947,0.1342209,0.51068987,43.6599,11/16.0/2021,2000,g 18.0,4.0
# From MPEC 2021-S45
C/2020 U3 (Rankin),e,30.1737,282.6789,124.2709,65.38827,0.0018640,0.96518932,0.5275,11/16.0/2021,2000,g 15.0,4.0
# From MPEC 2021-UA9
C/2020 U4 (PANSTARRS),h,04/07.8683/2022,167.0362,120.0165,69.5240,1.001621,5.353783,2000,7.0,4.0
# From MPEC 2021-UA9
C/2020 U5 (PANSTARRS),e,97.2722,107.3393,75.4133,6682,0.0000018,0.99943792,0.0000,04/27.8648/2022,2000,g  8.0,4.0
# From MPEC 2021-UA9
C/2020 V2 (ZTF),h,05/08.4709/2023,131.6071,212.3574,162.3942,1.001272,2.228336,2000,4.9,4.0
# From MPEC 2021-N06
P/2020 V3 (PANSTARRS),e,23.0315,198.2665,249.3183,8.369154,0.0407082,0.25557916,11.4193,11/16.0/2021,2000,g  8.3,4.0
# From MPEC 2021-UA9
P/2020 V4 (Rankin),e,14.2428,203.4996,256.9895,9.347760,0.0344860,0.44921951,4.1803,11/16.0/2021,2000,g  9.0,4.0
# From MPEC 2021-BE3
P/2020 W1 (Rankin),e,10.7915,124.2618,264.8761,7.202576,0.0509885,0.26575887,30.0583,11/16.0/2021,2000,g 10.0,4.0
# From MPEC 2021-BE3
C/2020 W5 (Lemmon),h,11/30.0815/2020,88.5832,75.5035,24.4793,1.000790,3.364236,2000,15.0,4.0
# From MPEC 2021-P47
P/2020 X1 (ATLAS),e,31.6957,56.0208,323.2766,4.526786,0.1023338,0.36548284,49.4884,11/16.0/2021,2000,g 13.0,4.0
# From MPEC 2021-U31
C/2020 X2 (ATLAS),e,18.1893,105.4550,347.3386,16.40533,0.0148329,0.76665470,5.4170,11/16.0/2021,2000,g 10.6,4.0
# From MPEC 2021-S45
C/2020 X4 (Leonard),e,80.5921,161.8889,140.1457,43.65171,0.0034175,0.88062247,1.2459,11/16.0/2021,2000,g  9.0,4.0
# From MPEC 2021-R75
C/2020 Y2 (ATLAS),e,101.2951,26.5103,266.0985,1197,0.0000238,0.99738205,0.0000,06/17.6629/2022,2000,g  6.5,4.0
# From MPEC 2021-R75
C/2020 Y3 (ATLAS),e,83.1008,191.4329,342.0304,148.9165,0.0005424,0.98657636,0.0000,12/03.4561/2020,2000,g 13.5,4.0
# From MPEC 2021-UA9
C/2021 A1 (Leonard),h,01/03.3002/2022,132.6844,255.8953,225.0926,1.000063,0.615258,2000,8.5,4.0
# From MPEC 2021-U31
C/2021 A2 (NEOWISE),e,106.9775,125.2357,338.8326,250.4695,0.0002486,0.99435971,0.0000,01/22.6136/2021,2000,g 13.5,4.0
# From MPEC 2021-R75
C/2021 A4 (NEOWISE),e,111.5681,307.0879,204.6754,42.99685,0.0034958,0.97335150,0.0000,03/20.0291/2021,2000,g 16.0,4.0
# From MPEC 2021-BE3
P/2021 A5 (PANSTARRS),e,18.1881,328.7673,61.1591,3.046729,0.1853333,0.13977474,68.4334,11/16.0/2021,2000,g 15.0,4.0
# From MPEC 2021-P47
C/2021 A6 (PANSTARRS),e,75.6130,164.0791,351.7291,11870,0.0000008,0.99933204,0.0000,05/04.7133/2021,2000,g  7.0,4.0
# From MPEC 2021-N06
C/2021 A7 (NEOWISE),e,78.1498,154.5191,356.0559,5591,0.0000024,0.99964807,0.0000,07/15.3105/2021,2000,g 10.0,4.0
# From MPEC 2021-P47
C/2021 A9 (PANSTARRS),h,12/01.4089/2023,158.0282,314.8412,211.4681,1.004167,7.758796,2000,6.0,4.0
# From MPEC 2021-N06
C/2021 A10 (NEOWISE),e,151.5313,188.3500,82.2909,93.95813,0.0010822,0.98649405,0.0000,03/15.2767/2021,2000,g 19.0,4.0
# From MPEC 2021-O56
C/2021 B2 (PANSTARRS),e,38.0925,120.5548,334.9651,347.3505,0.0001522,0.99276521,0.0000,05/04.2584/2021,2000,g 14.0,4.0
# From MPEC 2021-N06
C/2021 B3 (NEOWISE),e,119.4845,67.2871,293.5556,34.90437,0.0047795,0.93811301,1.1954,11/16.0/2021,2000,g 13.5,4.0
# From MPEC 2021-P47
C/2021 C1 (Rankin),e,143.0430,186.8946,336.3080,54483,0.0000001,0.99993611,0.0000,12/07.1331/2020,2000,g 11.5,4.0
# From MPEC 2021-U31
P/2021 C2 (PANSTARRS),e,21.9275,66.4850,78.7882,9.536873,0.0334653,0.48725884,8.8613,11/16.0/2021,2000,g 12.0,4.0
# From MPEC 2021-N06
C/2021 C3 (Catalina),e,122.1643,181.9239,357.1417,63.21028,0.0019612,0.96398926,0.5424,11/16.0/2021,2000,g 14.0,4.0
# From MPEC 2021-P47
C/2021 C4 (ATLAS),e,132.8472,194.2753,320.2356,10990,0.0000009,0.99959016,0.0000,01/17.1107/2021,2000,g  9.0,4.0
# From MPEC 2021-N06
C/2021 C5 (PANSTARRS),e,50.7869,323.6908,270.9177,5075,0.0000027,0.99936128,0.0000,02/11.0289/2023,2000,g  9.0,4.0
# From MPEC 2021-N06
C/2021 C6 (Lemmon),h,11/13.3037/2021,164.6261,332.1554,203.5576,1.001971,3.271348,2000,12.0,4.0
# From MPEC 2021-N06
C/2021 D1 (SWAN),e,31.4591,311.2708,72.2288,97.51078,0.0010236,0.99075170,0.0000,02/27.6233/2021,2000,g 13.0,4.0
# From MPEC 2021-UA9
C/2021 D2 (ZTF),h,02/03.9836/2022,83.8312,305.6772,125.0304,1.001323,2.946279,2000,9.0,4.0
# From MPEC 2021-N06
A/2021 E2,e,167.4881,190.8159,342.4596,235.8739,0.0002721,0.99029992,0.0000,12/10.4730/2020,2000,g 15.0,2.0
# From MPEC 2021-UA9
C/2021 E3 (ZTF),h,06/11.9086/2022,112.5603,104.4665,228.8447,1.000821,1.777440,2000,8.5,4.0
# From MPEC 2021-P47
A/2021 E4,e,116.3608,171.1733,48.2820,715.9612,0.0000514,0.99346894,0.0000,04/25.3529/2022,2000,g 13.5,2.0
# From MPEC 2021-R75
A/2021 F1,e,107.3237,203.4506,146.8201,237.0145,0.0002701,0.99579975,0.0000,04/06.8743/2022,2000,g 17.5,2.0
# From MPEC 2021-J72
C/2021 G1 (Leonard),e,131.5649,270.6952,107.4789,75.19464,0.0015116,0.95446977,0.1765,11/16.0/2021,2000,g 14.0,4.0
# From MPEC 2021-UA9
C/2021 G2 (ATLAS),e,48.4737,221.1280,343.3784,3929,0.0000040,0.99873307,0.0000,09/10.0379/2024,2000,g  5.5,4.0
# From MPEC 2021-M86
C/2021 G3 (PANSTARRS),h,10/18.6116/2021,102.8829,147.4187,10.6487,1.001088,5.181134,2000,10.5,4.0
# From MPEC 2021-U31
P/2021 HS (PANSTARRS),e,12.1711,262.3905,46.0857,4.194947,0.1147135,0.81014278,11.6565,11/16.0/2021,2000,g 22.0,4.0
# From MPEC 2021-R75
C/2021 J1 (Maury-Attard),e,92.7084,88.3155,147.3039,26.22806,0.0073376,0.93364527,1.9780,11/16.0/2021,2000,g 15.5,4.0
# From MPEC 2021-R75
C/2021 J2 (PANSTARRS),e,156.2082,23.3289,172.0582,117.3574,0.0007752,0.95989423,0.0423,11/16.0/2021,2000,g 12.0,4.0
# From MPEC 2021-S45
P/2021 J3 (ATLAS),e,14.5563,111.2193,125.8938,8.940561,0.0368686,0.45049792,31.8970,11/16.0/2021,2000,g  7.0,4.0
# From MPEC 2021-UA9
C/2021 K1 (ATLAS),e,16.2759,140.9050,184.2917,12.72242,0.0217195,0.80367595,4.2456,11/16.0/2021,2000,g 11.0,4.0
# From MPEC 2021-R75
C/2021 K2 (MASTER),h,09/09.1890/2021,100.8385,282.2481,343.3268,1.000622,5.466655,2000,8.0,4.0
# From MPEC 2021-U31
C/2021 K3 (Catalina),h,02/02.5741/2022,134.7809,114.4506,181.9821,1.003515,5.229894,2000,10.0,4.0
# From MPEC 2021-U31
